{
  "norad_id": 40892,
  "name": "TJS-1",
  "history": [
    {
      "epoch": "2026-03-28T20:39:24.315840Z",
      "apogee_km": 35806.595232357584,
      "perigee_km": 35765.850125025674,
      "latitude_deg": -0.03169506238225815,
      "longitude_deg": 154.9557101050367,
      "height_km": 35789.82168785036,
      "semi_major_axis_km": 42164.35967869163,
      "eccentricity": 0.00048317,
      "inclination_deg": 0.1175,
      "raan_deg": 83.0271,
      "arg_perigee_deg": 309.935,
      "mean_anomaly_deg": 258.151,
      "mean_motion_rev_day": 1.00273113
    },
    {
      "epoch": "2026-03-29T03:30:04.629024Z",
      "apogee_km": 35806.70302061103,
      "perigee_km": 35765.752989318215,
      "latitude_deg": -0.1002053047224231,
      "longitude_deg": 155.0121652373699,
      "height_km": 35765.21583446368,
      "semi_major_axis_km": 42164.365004964624,
      "eccentricity": 0.0004856,
      "inclination_deg": 0.1183,
      "raan_deg": 83.0146,
      "arg_perigee_deg": 310.2048,
      "mean_anomaly_deg": 0.8439,
      "mean_motion_rev_day": 1.00273094
    },
    {
      "epoch": "2026-03-29T18:42:51.746112Z",
      "apogee_km": 35806.82024886172,
      "perigee_km": 35765.625669181754,
      "latitude_deg": 0.02559621063521792,
      "longitude_deg": 154.9714250103895,
      "height_km": 35799.20011882355,
      "semi_major_axis_km": 42164.35995902174,
      "eccentricity": 0.0004885,
      "inclination_deg": 0.12,
      "raan_deg": 83.0246,
      "arg_perigee_deg": 310.933,
      "mean_anomaly_deg": 228.9303,
      "mean_motion_rev_day": 1.00273112
    },
    {
      "epoch": "2026-03-30T05:10:23.289312Z",
      "apogee_km": 35806.989879468485,
      "perigee_km": 35765.46556980037,
      "latitude_deg": -0.06744338742992845,
      "longitude_deg": 155.03978495292776,
      "height_km": 35767.03073400132,
      "semi_major_axis_km": 42164.364724634426,
      "eccentricity": 0.00049241,
      "inclination_deg": 0.1212,
      "raan_deg": 83.0118,
      "arg_perigee_deg": 311.4329,
      "mean_anomaly_deg": 25.756,
      "mean_motion_rev_day": 1.00273095
    },
    {
      "epoch": "2026-03-30T10:18:23.744736Z",
      "apogee_km": 35807.05172743511,
      "perigee_km": 35765.39755456996,
      "latitude_deg": 0.07619887169817766,
      "longitude_deg": 155.07083311883346,
      "height_km": 35790.41646837464,
      "semi_major_axis_km": 42164.361641002535,
      "eccentricity": 0.00049395,
      "inclination_deg": 0.1217,
      "raan_deg": 83.0134,
      "arg_perigee_deg": 311.6816,
      "mean_anomaly_deg": 102.7196,
      "mean_motion_rev_day": 1.00273106
    },
    {
      "epoch": "2026-03-30T20:34:19.629696Z",
      "apogee_km": 35807.12930798068,
      "perigee_km": 35765.32165600529,
      "latitude_deg": -0.03071986485277034,
      "longitude_deg": 154.96163871414032,
      "height_km": 35790.49617829956,
      "semi_major_axis_km": 42164.36248199299,
      "eccentricity": 0.00049577,
      "inclination_deg": 0.1229,
      "raan_deg": 83.003,
      "arg_perigee_deg": 312.2592,
      "mean_anomaly_deg": 256.5593,
      "mean_motion_rev_day": 1.00273103
    },
    {
      "epoch": "2026-03-31T20:25:38.637696Z",
      "apogee_km": 35807.42459219487,
      "perigee_km": 35765.032539055195,
      "latitude_deg": -0.02799453825152684,
      "longitude_deg": 154.96345556054266,
      "height_km": 35791.4344469731,
      "semi_major_axis_km": 42164.365565625034,
      "eccentricity": 0.0005027,
      "inclination_deg": 0.1254,
      "raan_deg": 82.9791,
      "arg_perigee_deg": 313.507,
      "mean_anomaly_deg": 254.1491,
      "mean_motion_rev_day": 1.00273092
    },
    {
      "epoch": "2026-04-01T19:18:38.590848Z",
      "apogee_km": 35807.70455050413,
      "perigee_km": 35764.76435461684,
      "latitude_deg": 0.003128429409182856,
      "longitude_deg": 154.9713616074498,
      "height_km": 35797.31134604933,
      "semi_major_axis_km": 42164.37145256049,
      "eccentricity": 0.0005092,
      "inclination_deg": 0.1277,
      "raan_deg": 82.9581,
      "arg_perigee_deg": 314.6763,
      "mean_anomaly_deg": 237.1949,
      "mean_motion_rev_day": 1.00273071
    },
    {
      "epoch": "2026-04-02T19:26:38.688864Z",
      "apogee_km": 35807.99181055501,
      "perigee_km": 35764.495035710504,
      "latitude_deg": -0.004451328272706338,
      "longitude_deg": 154.9714733358931,
      "height_km": 35796.87724249348,
      "semi_major_axis_km": 42164.38042313276,
      "eccentricity": 0.0005158,
      "inclination_deg": 0.1301,
      "raan_deg": 82.944,
      "arg_perigee_deg": 315.8303,
      "mean_anomaly_deg": 239.0513,
      "mean_motion_rev_day": 1.00273039
    },
    {
      "epoch": "2026-04-02T22:09:44.152416Z",
      "apogee_km": 35808.026519068495,
      "perigee_km": 35764.466494467655,
      "latitude_deg": -0.07955722275780874,
      "longitude_deg": 154.96409345087258,
      "height_km": 35781.94198170603,
      "semi_major_axis_km": 42164.38350676808,
      "eccentricity": 0.00051655,
      "inclination_deg": 0.1303,
      "raan_deg": 82.9536,
      "arg_perigee_deg": 315.9612,
      "mean_anomaly_deg": 279.7957,
      "mean_motion_rev_day": 1.00273028
    },
    {
      "epoch": "2026-04-03T20:09:38.723328Z",
      "apogee_km": 35808.279622400216,
      "perigee_km": 35764.234696261374,
      "latitude_deg": -0.030581606793429812,
      "longitude_deg": 154.96804192471865,
      "height_km": 35793.34290638374,
      "semi_major_axis_km": 42164.3941593308,
      "eccentricity": 0.0005223,
      "inclination_deg": 0.1324,
      "raan_deg": 82.9527,
      "arg_perigee_deg": 316.9536,
      "mean_anomaly_deg": 249.6892,
      "mean_motion_rev_day": 1.0027299
    },
    {
      "epoch": "2026-04-04T05:31:38.645760Z",
      "apogee_km": 35808.39879905294,
      "perigee_km": 35764.1228082073,
      "latitude_deg": -0.04681399579661964,
      "longitude_deg": 155.05548910209436,
      "height_km": 35766.58230069303,
      "semi_major_axis_km": 42164.39780363012,
      "eccentricity": 0.00052504,
      "inclination_deg": 0.1332,
      "raan_deg": 82.9529,
      "arg_perigee_deg": 317.4683,
      "mean_anomaly_deg": 30.0601,
      "mean_motion_rev_day": 1.00272977
    },
    {
      "epoch": "2026-04-05T12:53:38.686848Z",
      "apogee_km": 35808.720314968195,
      "perigee_km": 35763.85399451362,
      "latitude_deg": 0.12045040566548718,
      "longitude_deg": 155.06703247041273,
      "height_km": 35803.18115807259,
      "semi_major_axis_km": 42164.42415474091,
      "eccentricity": 0.00053204,
      "inclination_deg": 0.136,
      "raan_deg": 83.0171,
      "arg_perigee_deg": 318.7804,
      "mean_anomaly_deg": 140.4777,
      "mean_motion_rev_day": 1.00272883
    },
    {
      "epoch": "2026-04-05T18:37:02.425728Z",
      "apogee_km": 35808.76948771626,
      "perigee_km": 35763.82220230348,
      "latitude_deg": 0.007569550447763471,
      "longitude_deg": 154.98464984964733,
      "height_km": 35801.267426723454,
      "semi_major_axis_km": 42164.43284500988,
      "eccentricity": 0.000533,
      "inclination_deg": 0.1366,
      "raan_deg": 83.006,
      "arg_perigee_deg": 318.9105,
      "mean_anomaly_deg": 226.4438,
      "mean_motion_rev_day": 1.00272852
    },
    {
      "epoch": "2026-04-06T05:49:25.074048Z",
      "apogee_km": 35808.888644238774,
      "perigee_km": 35763.728836273134,
      "latitude_deg": -0.030455024053279246,
      "longitude_deg": 155.06501306381605,
      "height_km": 35767.16729252944,
      "semi_major_axis_km": 42164.44574025596,
      "eccentricity": 0.00053552,
      "inclination_deg": 0.1376,
      "raan_deg": 83.0295,
      "arg_perigee_deg": 319.4693,
      "mean_anomaly_deg": 34.4175,
      "mean_motion_rev_day": 1.00272806
    },
    {
      "epoch": "2026-04-07T20:14:47.649984Z",
      "apogee_km": 35809.161171017506,
      "perigee_km": 35763.5813375946,
      "latitude_deg": -0.053210959072429544,
      "longitude_deg": 154.97510605716334,
      "height_km": 35793.29372451909,
      "semi_major_axis_km": 42164.508254306056,
      "eccentricity": 0.0005405,
      "inclination_deg": 0.1411,
      "raan_deg": 83.1405,
      "arg_perigee_deg": 320.8225,
      "mean_anomaly_deg": 250.8803,
      "mean_motion_rev_day": 1.00272583
    },
    {
      "epoch": "2026-04-08T05:35:45.898368Z",
      "apogee_km": 35809.188684201246,
      "perigee_km": 35763.58522167471,
      "latitude_deg": -0.03198456303541447,
      "longitude_deg": 155.06689780365934,
      "height_km": 35766.37370767652,
      "semi_major_axis_km": 42164.52395293798,
      "eccentricity": 0.00054078,
      "inclination_deg": 0.142,
      "raan_deg": 83.1566,
      "arg_perigee_deg": 321.0847,
      "mean_anomaly_deg": 31.2295,
      "mean_motion_rev_day": 1.00272527
    }
  ]
}